NORAD_CAT_ID,OBJECT_NAME,OBJECT_TYPE,EPOCH,MEAN_MOTION,ECCENTRICITY,INCLINATION,RA_OF_ASC_NODE,ARG_OF_PERICENTER,MEAN_ANOMALY,BSTAR,MEAN_MOTION_DOT,MEAN_MOTION_DDOT,TLE_LINE0,TLE_LINE1,TLE_LINE2,SEMIMAJOR_AXIS,PERIOD,APOGEE,PERIGEE,DECAYED
53407.0,STARLINK-4537,PAYLOAD,2022-09-15 14:00:01,15.73210604,0.0001205,53.2168,67.9802,45.6074,247.9996,0.00015695,0.00021473,0.0,0 STARLINK-4537,1 53407U 22097V   22258.58334491  .00021473  00000-0  15695-3 0  9991,2 53407  53.2168  67.9802 0001205  45.6074 247.9996 15.73210604  1301,6727.865,91.533,350.541,348.9190000000001,0.0
53407.0,STARLINK-4537,PAYLOAD,2022-09-15 22:00:00,15.73195224,0.0001491,53.2163,66.3323,41.6389,340.9273,0.00028475,0.00039523,0.0,0 STARLINK-4537,1 53407U 22097V   22258.91667824  .00039523  00000-0  28475-3 0  9992,2 53407  53.2163  66.3323 0001491  41.6389 340.9273 15.73195224  1301,6727.909000000002,91.533,350.777,348.771,0.0
53407.0,STARLINK-4537,PAYLOAD,2022-09-16 02:00:01,15.7320859,0.0001468,53.216,65.5066,44.6282,202.3971,0.00013335,0.00018142,0.0,0 STARLINK-4537,1 53407U 22097V   22259.08334491  .00018142  00000-0  13335-3 0  9995,2 53407  53.2160  65.5066 0001468  44.6282 202.3971 15.73208590  6236,6727.871,91.533,350.723,348.74800000000016,0.0
53407.0,STARLINK-4537,PAYLOAD,2022-09-16 14:00:01,15.73209406,0.0001459,53.2166,63.032,50.365,150.0738,-0.00047519,-0.0006681,0.0,0 STARLINK-4537,1 53407U 22097V   22259.58334491 -.00066810  00000-0 -47519-3 0  9998,2 53407  53.2166  63.0320 0001459  50.3650 150.0738 15.73209406  1301,6727.868,91.533,350.715,348.75199999999984,0.0
53407.0,STARLINK-4537,PAYLOAD,2022-09-16 16:00:00,15.73185365,0.0001496,53.2165,62.6201,47.8832,264.7912,-0.00022819,-0.00032502,0.0,0 STARLINK-4537,1 53407U 22097V   22259.66667824 -.00032502  00000-0 -22819-3 0  9993,2 53407  53.2165  62.6201 0001496  47.8832 264.7912 15.73185365  6328,6727.937,91.534,350.80800000000005,348.795,0.0
53407.0,STARLINK-4537,PAYLOAD,2022-09-16 22:00:00,15.73139906,0.0001551,53.2166,61.3841,38.0629,251.2897,0.00076927,0.00108466,0.0,0 STARLINK-4537,1 53407U 22097V   22259.91667824  .00108466  00000-0  76927-3 0  9991,2 53407  53.2166  61.3841 0001551  38.0629 251.2897 15.73139906  1309,6728.066999999999,91.537,350.975,348.88800000000015,0.0
53407.0,STARLINK-4537,PAYLOAD,2022-09-17 06:00:00,15.73186973,0.0001440999999999,53.2168,59.7326,44.3298,333.9168,0.00042531,0.0005946,0.0,0 STARLINK-4537,1 53407U 22097V   22260.25001157  .00059460  00000-0  42531-3 0  9994,2 53407  53.2168  59.7326 0001441  44.3298 333.9168 15.73186973  6412,6727.932,91.534,350.767,348.82800000000015,0.0
53407.0,STARLINK-4537,PAYLOAD,2022-09-17 14:00:01,15.73220969,0.0001629999999999,53.2168,58.084,46.5765,60.5947,-0.00039339,-0.00055518,0.0,0 STARLINK-4537,1 53407U 22097V   22260.58334491 -.00055518  00000-0 -39339-3 0  9994,2 53407  53.2168  58.0840 0001630  46.5765  60.5947 15.73220969  6476,6727.835,91.532,350.797,348.60400000000016,0.0
53407.0,STARLINK-4537,PAYLOAD,2022-09-17 22:00:00,15.73216972,0.0001758,53.2161,56.4357,40.1701,155.9587,-0.00013521,-0.00019567,0.0,0 STARLINK-4537,1 53407U 22097V   22260.91667824 -.00019567  00000-0 -13521-3 0  9999,2 53407  53.2161  56.4357 0001758  40.1701 155.9587 15.73216972  6529,6727.847,91.532,350.895,348.529,0.0
53407.0,STARLINK-4537,PAYLOAD,2022-09-18 14:00:01,15.73233311,0.0001663,53.2164,53.1354,43.6751,330.3907,-0.00032129,-0.00045534,0.0,0 STARLINK-4537,1 53407U 22097V   22261.58335648 -.00045534  00000-0 -32129-3 0  9997,2 53407  53.2164  53.1354 0001663  43.6751 330.3907 15.73233311  1303,6727.8,91.531,350.784,348.546,0.0
53407.0,STARLINK-4537,PAYLOAD,2022-09-18 22:00:00,15.73210113,0.0001867,53.2163,51.4871,38.1907,64.7545,0.00042623,0.00059652,0.0,0 STARLINK-4537,1 53407U 22097V   22261.91667824  .00059652  00000-0  42623-3 0  9992,2 53407  53.2163  51.4871 0001867  38.1907  64.7545 15.73210113  6682,6727.866,91.533,350.987,348.475,0.0
53407.0,STARLINK-4537,PAYLOAD,2022-09-19 06:00:02,15.73195166,0.0001655,53.2166,49.8354,39.5253,152.4534,0.00024466,0.00033848,0.0,0 STARLINK-4537,1 53407U 22097V   22262.25002315  .00033848  00000-0  24466-3 0  9992,2 53407  53.2166  49.8354 0001655  39.5253 152.4534 15.73195166  6735,6727.909000000002,91.533,350.88699999999994,348.66,0.0
53407.0,STARLINK-4537,PAYLOAD,2022-09-19 14:00:01,15.73209209,0.0001864,53.2165,48.187,39.8912,240.9627,-0.00014277,-0.00020618,0.0,0 STARLINK-4537,1 53407U 22097V   22262.58334491 -.00020618  00000-0 -14277-3 0  9993,2 53407  53.2165  48.1870 0001864  39.8912 240.9627 15.73209209  1304,6727.869000000002,91.533,350.98800000000006,348.48,0.0
53407.0,STARLINK-4537,PAYLOAD,2022-09-19 22:00:00,15.73204416,0.0001453999999999,53.2171,46.5206,39.1556,330.5641,8.2704e-06,5.41e-06,0.0,0 STARLINK-4537,1 53407U 22097V   22262.91667824  .00000541  00000-0  82704-5 0  9992,2 53407  53.2171  46.5206 0001454  39.1556 330.5641 15.73204416  6838,6727.8830000000025,91.533,350.726,348.769,0.0
53407.0,STARLINK-4537,PAYLOAD,2022-09-20 06:00:00,15.73208682,0.0001631,53.2163,44.8824,32.8596,65.884,8.879200000000001e-05,0.00011863,0.0,0 STARLINK-4537,1 53407U 22097V   22263.25001157  .00011863  00000-0  88792-4 0  9992,2 53407  53.2163  44.8824 0001631  32.8596  65.8840 15.73208682  6891,6727.87,91.533,350.833,348.63800000000015,0.0
53407.0,STARLINK-4537,PAYLOAD,2022-09-20 14:00:01,15.73171932,0.0001766,53.2169,43.2271,31.8701,155.8402,-0.00081041,-0.00112717,0.0,0 STARLINK-4537,1 53407U 22097V   22263.58334491 -.00112717  00000-0 -81041-3 0  9999,2 53407  53.2169  43.2271 0001766  31.8701 155.8402 15.73171932  6949,6727.975,91.535,351.028,348.652,0.0
53407.0,STARLINK-4537,PAYLOAD,2022-09-20 22:00:01,15.73201986,0.0001819,53.2171,41.5729,35.50199999999999,241.0858,4.4955e-05,5.693e-05,0.0,0 STARLINK-4537,1 53407U 22097V   22263.91668981  .00005693  00000-0  44955-4 0  9996,2 53407  53.2171  41.5729 0001819  35.5020 241.0858 15.73201986  6996,6727.89,91.533,350.978,348.531,0.0
53407.0,STARLINK-4537,PAYLOAD,2022-09-21 08:00:01,15.73231173,0.0001975,53.2166,39.5256,35.8384,81.8874,-3.7401e-05,-5.874e-05,0.0,0 STARLINK-4537,1 53407U 22097V   22264.33334491 -.00005874  00000-0 -37401-4 0  9990,2 53407  53.2166  39.5256 0001975  35.8384  81.8874 15.73231173  7069,6727.806,91.531,351.0,348.343,0.0
53407.0,STARLINK-4537,PAYLOAD,2022-09-21 22:00:00,15.73254906,0.0002278999999999,53.2159,36.6408,31.856,151.5288,-0.00049744,-0.00070028,0.0,0 STARLINK-4537,1 53407U 22097V   22264.91667824 -.00070028  00000-0 -49744-3 0  9998,2 53407  53.2159  36.6408 0002279  31.8560 151.5288 15.73254906  1302,6727.739000000001,91.53,351.13699999999994,348.07,0.0
53407.0,STARLINK-4537,PAYLOAD,2022-09-22 14:00:01,15.73176219,0.000229,53.2164,33.3413,34.7349,326.5444,0.00010949,0.00014757,0.0,0 STARLINK-4537,1 53407U 22097V   22265.58334491  .00014757  00000-0  10949-3 0  9993,2 53407  53.2164  33.3413 0002290  34.7349 326.5444 15.73176219  1317,6727.9630000000025,91.535,351.369,348.287,0.0
53407.0,STARLINK-4537,PAYLOAD,2022-09-22 22:00:00,15.73229223,0.0002381,53.2164,31.6921,30.0505,60.1256,-0.00043719,-0.00061616,0.0,0 STARLINK-4537,1 53407U 22097V   22265.91667824 -.00061616  00000-0 -43719-3 0  9998,2 53407  53.2164  31.6921 0002381  30.0505  60.1256 15.73229223  1301,6727.812,91.531,351.279,348.075,0.0
53407.0,STARLINK-4537,PAYLOAD,2022-09-23 14:00:01,15.73120568,0.0002419,53.2175,28.3776,33.9365,234.1019,0.00093213,0.00131828,0.0,0 STARLINK-4537,1 53407U 22097V   22266.58334491  .00131828  00000-0  93213-3 0  9998,2 53407  53.2175  28.3776 0002419  33.9365 234.1019 15.73120568  7412,6728.121999999999,91.538,351.61400000000015,348.3590000000001,0.0
53407.0,STARLINK-4537,PAYLOAD,2022-09-23 22:00:00,15.73319082,0.0002459,53.2166,26.7352,25.8278,331.1359,-0.0019939,-0.00273022,0.0,0 STARLINK-4537,1 53407U 22097V   22266.91667824 -.00273022  00000-0 -19939-2 0  9991,2 53407  53.2166  26.7352 0002459  25.8278 331.1359 15.73319082  1309,6727.556,91.526,351.075,347.766,0.0
53407.0,STARLINK-4537,PAYLOAD,2022-09-24 06:00:00,15.73226052,0.0002085,53.2166,25.0921,22.6126,63.3571,-0.00014923,-0.00021536,0.0,0 STARLINK-4537,1 53407U 22097V   22267.25001157 -.00021536  00000-0 -14923-3 0  9990,2 53407  53.2166  25.0921 0002085  22.6126  63.3571 15.73226052  7529,6727.821,91.532,351.089,348.283,0.0
53407.0,STARLINK-4537,PAYLOAD,2022-09-24 14:00:01,15.73247329,0.0002346,53.2168,23.4443,19.3337,155.6747,-0.00015896,-0.00022918,0.0,0 STARLINK-4537,1 53407U 22097V   22267.58335648 -.00022918  00000-0 -15896-3 0  9996,2 53407  53.2168  23.4443 0002346  19.3337 155.6747 15.73247329  7574,6727.76,91.53,351.204,348.047,0.0
53407.0,STARLINK-4537,PAYLOAD,2022-09-24 22:00:00,15.73258676,0.000243,53.217,21.7946,18.4572,245.4605,-0.00072461,-0.0010137,0.0,0 STARLINK-4537,1 53407U 22097V   22267.91667824 -.00101370  00000-0 -72461-3 0  9998,2 53407  53.2170  21.7946 0002430  18.4572 245.4605 15.73258676  1304,6727.728,91.53,351.228,347.958,0.0
53407.0,STARLINK-4537,PAYLOAD,2022-09-25 14:00:01,15.73193525,0.0002657,53.2174,18.496,22.0081,59.7745,-0.00025509,-0.00036265,0.0,0 STARLINK-4537,1 53407U 22097V   22268.58334491 -.00036265  00000-0 -25509-3 0  9994,2 53407  53.2174  18.4960 0002657  22.0081  59.7745 15.73193525  1306,6727.9140000000025,91.534,351.566,347.991,0.0
53407.0,STARLINK-4537,PAYLOAD,2022-09-25 22:00:01,15.73229261,0.0002588,53.2167,16.8386,20.8279,149.9186,-0.0011002,-0.00152486,0.0,0 STARLINK-4537,1 53407U 22097V   22268.91668981 -.00152486  00000-0 -11002-2 0  9991,2 53407  53.2167  16.8386 0002588  20.8279 149.9186 15.73229261  1308,6727.812,91.531,351.418,347.936,0.0
53407.0,STARLINK-4537,PAYLOAD,2022-09-26 10:00:00,15.73149215,0.0002372,53.2171,14.3665,16.2437,107.7619,0.00014945,0.0002036,0.0,0 STARLINK-4537,1 53407U 22097V   22269.41667824  .00020360  00000-0  14945-3 0  9995,2 53407  53.2171  14.3665 0002372  16.2437 107.7619 15.73149215  7862,6728.04,91.536,351.501,348.309,0.0
